raw_text,station_id,observation_time,latitude,longitude,temp_c,dewpoint_c,wind_dir_degrees,wind_speed_kt,wind_gust_kt,visibility_statute_mi,altim_in_hg,sea_level_pressure_mb,corrected,auto,auto_station,maintenance_indicator_on,no_signal,lightning_sensor_off,freezing_rain_sensor_off,present_weather_sensor_off,wx_string,sky_cover,cloud_base_ft_agl,sky_cover,cloud_base_ft_agl,sky_cover,cloud_base_ft_agl,sky_cover,cloud_base_ft_agl,flight_category,three_hr_pressure_tendency_mb,maxT_c,minT_c,maxT24hr_c,minT24hr_c,precip_in,pcp3hr_in,pcp6hr_in,pcp24hr_in,snow_in,vert_vis_ft,metar_type,elevation_m
SPECI UMKK 111327Z 08004MPS 1000 0900S R24/1000D +SN SCT004 OVC017 M02/M02 Q0989 R24/590393 NOSIG RMK QBB120 OBST OBSC QFE740/0987,UMKK,2026-02-11T13:27:00.000Z,54.885,20.583,-2,-2,80,8,,0.62,29.2,,,,,,TRUE,,,,#NAME?,SCT,400,OVC,1700,,,,,LIFR,,,,,,,,,,,,SPECI,6
SPECI ULLI 111327Z 31002MPS 9000 -SHSN BKN015CB OVC040 M06/M08 Q0996 R88/450542 NOSIG,ULLI,2026-02-11T13:27:00.000Z,59.798,30.267,-6,-8,310,4,,5.59,29.41,,,,,,TRUE,,,,#NAME?,BKN,1500,OVC,4000,,,,,MVFR,,,,,,,,,,,,SPECI,25
SPECI PAKI 111326Z AUTO 16023KT 5SM BR OVC010 M01/M01 A2867 RMK AO2 PK WND 16032/1306 SNE20 CIG 007V012 P0000 FZRANO,PAKI,2026-02-11T13:26:00.000Z,59.935,-164.033,-1,-1,160,23,,5,28.67,,,TRUE,TRUE,,,,TRUE,,BR,OVC,1000,,,,,,,MVFR,,,,,,0.005,,,,,,SPECI,4
